{"type": "FeatureCollection", "features": [ {"type": "Feature", "properties": {"norad_id": 44476, "name": "INTELSAT 39 (IS-39)", "group": "intelsat", "lat": 0.01815111196898508, "lon": 118.31111391725061, "alt_km": 35783.94317268717, "timestamp": "2025-12-07T22:37:42.750955+00:00", "meta": {"OBJECT_NAME": "INTELSAT 39 (IS-39)", "OBJECT_ID": "2019-049B", "EPOCH": "2025-12-06T22:31:13.300896", "MEAN_MOTION": 1.00267191, "ECCENTRICITY": 8.792e-05, "INCLINATION": 0.0164, "RA_OF_ASC_NODE": 319.6906, "ARG_OF_PERICENTER": 183.4518, "MEAN_ANOMALY": 332.5825, "EPHEMERIS_TYPE": 0, "CLASSIFICATION_TYPE": "U", "NORAD_CAT_ID": 44476, "ELEMENT_SET_NO": 999, "REV_AT_EPOCH": 2320, "BSTAR": 0, "MEAN_MOTION_DOT": 4e-07, "MEAN_MOTION_DDOT": 0}, "tle": {"line1": "1 44476U 19049B   25340.93834839  .00000040  00000+0  00000+0 0  9991", "line2": "2 44476   0.0164 319.6906 0000879 183.4518 332.5825  1.00267191 23208"}}, "geometry": {"type": "Point", "coordinates": [118.31111391725061, 0.01815111196898508]}}, {"type": "Feature", "properties": {"norad_id": 46114, "name": "GALAXY 30 (G-30)", "group": "intelsat", "lat": -0.028148347819844682, "lon": -68.60825741032556, "alt_km": 35777.958259717365, "timestamp": "2025-12-07T22:37:42.750967+00:00", "meta": {"OBJECT_NAME": "GALAXY 30 (G-30)", "OBJECT_ID": "2020-056C", "EPOCH": "2025-12-07T06:11:27.743136", "MEAN_MOTION": 1.00270615, "ECCENTRICITY": 0.00024689, "INCLINATION": 0.0168, "RA_OF_ASC_NODE": 334.3319, "ARG_OF_PERICENTER": 280.5472, "MEAN_ANOMALY": 149.2672, "EPHEMERIS_TYPE": 0, "CLASSIFICATION_TYPE": "U", "NORAD_CAT_ID": 46114, "ELEMENT_SET_NO": 999, "REV_AT_EPOCH": 1936, "BSTAR": 0, "MEAN_MOTION_DOT": 4.2e-07, "MEAN_MOTION_DDOT": 0}, "tle": {"line1": "1 46114U 20056C   25341.25795999  .00000042  00000+0  00000+0 0  9993", "line2": "2 46114   0.0168 334.3319 0002468 280.5472 149.2672  1.00270615 19369"}}, "geometry": {"type": "Point", "coordinates": [-68.60825741032556, -0.028148347819844682]}}, {"type": "Feature", "properties": {"norad_id": 54026, "name": "GALAXY 33 (G-33)", "group": "intelsat", "lat": -0.03250147947170644, "lon": -76.61138932705155, "alt_km": 35778.321598377544, "timestamp": "2025-12-07T22:37:42.750979+00:00", "meta": {"OBJECT_NAME": "GALAXY 33 (G-33)", "OBJECT_ID": "2022-128A", "EPOCH": "2025-12-07T07:02:44.849760", "MEAN_MOTION": 1.0027046, "ECCENTRICITY": 0.00022298, "INCLINATION": 0.022, "RA_OF_ASC_NODE": 46.5976, "ARG_OF_PERICENTER": 205.519, "MEAN_ANOMALY": 156.8866, "EPHEMERIS_TYPE": 0, "CLASSIFICATION_TYPE": "U", "NORAD_CAT_ID": 54026, "ELEMENT_SET_NO": 999, "REV_AT_EPOCH": 1181, "BSTAR": 0, "MEAN_MOTION_DOT": 8.4e-07, "MEAN_MOTION_DDOT": 0}, "tle": {"line1": "1 54026U 22128A   25341.29357465  .00000084  00000+0  00000+0 0  9998", "line2": "2 54026   0.0220  46.5976 0002229 205.5190 156.8866  1.00270460 11818"}}, "geometry": {"type": "Point", "coordinates": [-76.61138932705155, -0.03250147947170644]}}, {"type": "Feature", "properties": {"norad_id": 54027, "name": "GALAXY 34 (G-34)", "group": "intelsat", "lat": -0.03771452091646096, "lon": -72.55159963377999, "alt_km": 35782.080949036164, "timestamp": "2025-12-07T22:37:42.750990+00:00", "meta": {"OBJECT_NAME": "GALAXY 34 (G-34)", "OBJECT_ID": "2022-128B", "EPOCH": "2025-12-07T06:10:20.350272", "MEAN_MOTION": 1.0027003, "ECCENTRICITY": 0.00013342, "INCLINATION": 0.0204, "RA_OF_ASC_NODE": 351.7204, "ARG_OF_PERICENTER": 257.4803, "MEAN_ANOMALY": 150.7295, "EPHEMERIS_TYPE": 0, "CLASSIFICATION_TYPE": "U", "NORAD_CAT_ID": 54027, "ELEMENT_SET_NO": 999, "REV_AT_EPOCH": 1198, "BSTAR": 0, "MEAN_MOTION_DOT": 0, "MEAN_MOTION_DDOT": 0}, "tle": {"line1": "1 54027U 22128B   25341.25717998  .00000000  00000+0  00000+0 0  9994", "line2": "2 54027   0.0204 351.7204 0001334 257.4803 150.7295  1.00270030 11989"}}, "geometry": {"type": "Point", "coordinates": [-72.55159963377999, -0.03771452091646096]}}, {"type": "Feature", "properties": {"norad_id": 54243, "name": "GALAXY 31 (G-31)", "group": "intelsat", "lat": -0.018150457176190377, "lon": -64.6085862805511, "alt_km": 35778.85527713365, "timestamp": "2025-12-07T22:37:42.751002+00:00", "meta": {"OBJECT_NAME": "GALAXY 31 (G-31)", "OBJECT_ID": "2022-153A", "EPOCH": "2025-12-07T06:12:42.623424", "MEAN_MOTION": 1.00271085, "ECCENTRICITY": 0.00019672, "INCLINATION": 0.019, "RA_OF_ASC_NODE": 75.829, "ARG_OF_PERICENTER": 192.1195, "MEAN_ANOMALY": 140.5155, "EPHEMERIS_TYPE": 0, "CLASSIFICATION_TYPE": "U", "NORAD_CAT_ID": 54243, "ELEMENT_SET_NO": 999, "REV_AT_EPOCH": 520, "BSTAR": 0, "MEAN_MOTION_DOT": 1.8e-07, "MEAN_MOTION_DDOT": 0}, "tle": {"line1": "1 54243U 22153A   25341.25882666  .00000018  00000+0  00000+0 0  9996", "line2": "2 54243   0.0190  75.8290 0001967 192.1195 140.5155  1.00271085  5204"}}, "geometry": {"type": "Point", "coordinates": [-64.6085862805511, -0.018150457176190377]}}, {"type": "Feature", "properties": {"norad_id": 54244, "name": "GALAXY 32 (G-32)", "group": "intelsat", "lat": -0.0030764041289829866, "lon": -34.60178643148912, "alt_km": 35775.348491034885, "timestamp": "2025-12-07T22:37:42.751013+00:00", "meta": {"OBJECT_NAME": "GALAXY 32 (G-32)", "OBJECT_ID": "2022-153B", "EPOCH": "2025-12-07T06:21:11.809728", "MEAN_MOTION": 1.00273035, "ECCENTRICITY": 0.00026752, "INCLINATION": 0.0108, "RA_OF_ASC_NODE": 324.2111, "ARG_OF_PERICENTER": 338.9288, "MEAN_ANOMALY": 137.4527, "EPHEMERIS_TYPE": 0, "CLASSIFICATION_TYPE": "U", "NORAD_CAT_ID": 54244, "ELEMENT_SET_NO": 999, "REV_AT_EPOCH": 1122, "BSTAR": 0, "MEAN_MOTION_DOT": -1.7e-06, "MEAN_MOTION_DDOT": 0}, "tle": {"line1": "1 54244U 22153B   25341.26472002 -.00000170  00000+0  00000+0 0  9997", "line2": "2 54244   0.0108 324.2111 0002675 338.9288 137.4527  1.00273035 11221"}}, "geometry": {"type": "Point", "coordinates": [-34.60178643148912, -0.0030764041289829866]}}, {"type": "Feature", "properties": {"norad_id": 54741, "name": "GALAXY 35 (G-35)", "group": "intelsat", "lat": -0.01467443640180793, "lon": -36.68067040853662, "alt_km": 35780.691276634665, "timestamp": "2025-12-07T22:37:42.751025+00:00", "meta": {"OBJECT_NAME": "GALAXY 35 (G-35)", "OBJECT_ID": "2022-170A", "EPOCH": "2025-12-07T06:20:34.370016", "MEAN_MOTION": 1.00271089, "ECCENTRICITY": 0.00027148, "INCLINATION": 0.0095, "RA_OF_ASC_NODE": 46.8987, "ARG_OF_PERICENTER": 215.6872, "MEAN_ANOMALY": 175.7605, "EPHEMERIS_TYPE": 0, "CLASSIFICATION_TYPE": "U", "NORAD_CAT_ID": 54741, "ELEMENT_SET_NO": 999, "REV_AT_EPOCH": 1096, "BSTAR": 0, "MEAN_MOTION_DOT": -1.58e-06, "MEAN_MOTION_DDOT": 0}, "tle": {"line1": "1 54741U 22170A   25341.26428669 -.00000158  00000+0  00000+0 0  9994", "line2": "2 54741   0.0095  46.8987 0002714 215.6872 175.7605  1.00271089 10969"}}, "geometry": {"type": "Point", "coordinates": [-36.68067040853662, -0.01467443640180793]}}, {"type": "Feature", "properties": {"norad_id": 54742, "name": "GALAXY 36 (G-36)", "group": "intelsat", "lat": -0.010350606895322969, "lon": -32.62799133668636, "alt_km": 35785.17977967409, "timestamp": "2025-12-07T22:37:42.751037+00:00", "meta": {"OBJECT_NAME": "GALAXY 36 (G-36)", "OBJECT_ID": "2022-170B", "EPOCH": "2025-12-07T06:21:49.251168", "MEAN_MOTION": 1.00269277, "ECCENTRICITY": 6.275e-05, "INCLINATION": 0.0106, "RA_OF_ASC_NODE": 348.9133, "ARG_OF_PERICENTER": 286.9381, "MEAN_ANOMALY": 166.8867, "EPHEMERIS_TYPE": 0, "CLASSIFICATION_TYPE": "U", "NORAD_CAT_ID": 54742, "ELEMENT_SET_NO": 999, "REV_AT_EPOCH": 1084, "BSTAR": 0, "MEAN_MOTION_DOT": 0, "MEAN_MOTION_DDOT": 0}, "tle": {"line1": "1 54742U 22170B   25341.26515337  .00000000  00000+0  00000+0 0  9999", "line2": "2 54742   0.0106 348.9133 0000627 286.9381 166.8867  1.00269277 10843"}}, "geometry": {"type": "Point", "coordinates": [-32.62799133668636, -0.010350606895322969]}}, {"type": "Feature", "properties": {"norad_id": 57493, "name": "GALAXY 37 (G-37)", "group": "intelsat", "lat": -0.02326539417467459, "lon": -70.6054050861371, "alt_km": 35777.37325163671, "timestamp": "2025-12-07T22:37:42.751048+00:00", "meta": {"OBJECT_NAME": "GALAXY 37 (G-37)", "OBJECT_ID": "2023-112A", "EPOCH": "2025-12-07T06:10:57.790848", "MEAN_MOTION": 1.00270729, "ECCENTRICITY": 0.00024043, "INCLINATION": 0.0072, "RA_OF_ASC_NODE": 338.735, "ARG_OF_PERICENTER": 282.25, "MEAN_ANOMALY": 141.0424, "EPHEMERIS_TYPE": 0, "CLASSIFICATION_TYPE": "U", "NORAD_CAT_ID": 57493, "ELEMENT_SET_NO": 999, "REV_AT_EPOCH": 861, "BSTAR": 0, "MEAN_MOTION_DOT": 5.3e-07, "MEAN_MOTION_DDOT": 0}, "tle": {"line1": "1 57493U 23112A   25341.25761332  .00000053  00000+0  00000+0 0  9997", "line2": "2 57493   0.0072 338.7350 0002404 282.2500 141.0424  1.00270729  8616"}}, "geometry": {"type": "Point", "coordinates": [-70.6054050861371, -0.02326539417467459]}}]}